OBJECT_NAME,OBJECT_ID,EPOCH,MEAN_MOTION,ECCENTRICITY,INCLINATION,RA_OF_ASC_NODE,ARG_OF_PERICENTER,MEAN_ANOMALY,EPHEMERIS_TYPE,CLASSIFICATION_TYPE,NORAD_CAT_ID,ELEMENT_SET_NO,REV_AT_EPOCH,BSTAR,MEAN_MOTION_DOT,MEAN_MOTION_DDOT,GROUP
JILIN-1 GAOFEN 3D31,2022-048F,2026-05-03T06:33:38.734272,15.70490977,0.00029347,97.5649,234.5277,215.7042,144.4024,0,U,52448,999,22251,0.00091797817,0.00113638,0.0,Active Satellites
STARLINK-3870,2022-049A,2026-05-03T08:00:01.000224,15.9014645,0.00016773,53.2098,170.5481,76.0914,38.205,0,U,52451,999,583,0.0034885188,0.01210632,0.0,Active Satellites
STARLINK-3909,2022-049B,2026-05-03T04:08:05.413632,15.08840814,7.788e-05,53.2161,184.4091,68.6628,291.4447,0,U,52452,999,22033,3.5970246e-05,2.85e-06,0.0,Active Satellites
STARLINK-3872,2022-049C,2026-05-02T21:20:07.453824,15.08776663,0.0002771,53.2164,185.812,39.0225,321.0967,0,U,52453,999,22029,0.0011853,0.00018594,0.0,Active Satellites
STARLINK-3888,2022-049D,2026-05-03T03:46:55.477056,15.08839151,0.00012552,53.2172,184.6059,84.9638,275.1497,0,U,52454,999,22033,7.6890782e-05,9.36e-06,0.0,Active Satellites
STARLINK-3890,2022-049E,2026-05-02T21:16:10.069824,15.08834856,0.0001171,53.2182,185.8257,85.7872,274.3254,0,U,52455,999,22029,-2.3602e-07,-2.92e-06,0.0,Active Satellites
STARLINK-3896,2022-049F,2026-05-03T03:32:24.268704,15.08838052,0.00014851,53.2183,184.6522,96.8144,263.3017,0,U,52456,999,22033,3.2651562e-05,2.32e-06,0.0,Active Satellites
STARLINK-3899,2022-049G,2026-05-02T21:04:11.063712,15.08838174,0.00013,53.2166,185.8497,87.2968,272.8173,0,U,52457,999,22029,2.0754e-05,4.2e-07,0.0,Active Satellites
STARLINK-3898,2022-049H,2026-05-02T21:00:16.079904,15.0883193,0.0001206,53.2175,185.8725,105.7618,254.3507,0,U,52458,999,22029,-2.1881e-05,-6.36e-06,0.0,Active Satellites
STARLINK-3856,2022-049J,2026-05-02T20:39:00.757152,15.0883783,0.00012816,53.2166,175.9408,87.2865,272.8274,0,U,52459,999,22042,1.3144953e-05,-7.9e-07,0.0,Active Satellites
STARLINK-3900,2022-049L,2026-05-03T06:07:20.875872,15.08838969,0.00011059,53.2168,164.1666,92.8208,267.2911,0,U,52461,999,22062,1.9710076e-05,2.6e-07,0.0,Active Satellites
STARLINK-3903,2022-049M,2026-05-02T20:29:47.913792,15.0883582,0.00012855,53.2162,175.9776,86.16,273.9539,0,U,52462,999,22042,6.091656e-06,-1.91e-06,0.0,Active Satellites
STARLINK-3885,2022-049N,2026-05-03T06:02:02.862528,15.08841146,0.00012395,53.2167,164.185,85.7857,274.3277,0,U,52463,999,22062,3.0276481e-05,1.94e-06,0.0,Active Satellites
STARLINK-3904,2022-049P,2026-05-02T09:26:01.253184,15.08832375,0.00012394,53.2172,178.0391,78.5447,281.5685,0,U,52464,999,22035,0.00011933619,1.612e-05,0.0,Active Satellites
STARLINK-3863,2022-049Q,2026-05-03T02:45:58.681728,15.08842277,0.00012464,53.2159,164.7934,87.6076,272.5058,0,U,52465,999,22060,2.727725e-06,-2.44e-06,0.0,Active Satellites
STARLINK-3873,2022-049S,2026-05-03T02:44:39.388992,15.08828851,4.252e-05,53.2169,174.7979,97.3748,262.7293,0,U,52467,999,22046,5.6705442e-05,6.15e-06,0.0,Active Satellites
STARLINK-3864,2022-049T,2026-05-03T03:58:52.437216,15.08826135,0.00011998,53.2163,174.566,85.8363,274.2767,0,U,52468,999,22047,0.00012460061,1.695e-05,0.0,Active Satellites
STARLINK-3828,2022-049U,2026-05-03T02:34:03.783936,15.08834561,0.00011687,53.2163,174.8382,82.6449,277.4676,0,U,52469,999,22046,5.739571e-06,-1.96e-06,0.0,Active Satellites
STARLINK-3859,2022-049V,2026-05-03T03:48:14.697216,15.08837032,0.00012249,53.2169,174.5995,89.548,270.5653,0,U,52470,999,22047,5.048741e-06,-2.08e-06,0.0,Active Satellites
STARLINK-3862,2022-049W,2026-05-03T04:05:31.559424,15.08835263,0.00012184,53.2164,174.5549,86.4236,273.6896,0,U,52471,999,22047,1.8348781e-05,4e-08,0.0,Active Satellites
STARLINK-3881,2022-049X,2026-05-03T03:42:56.664000,15.08839073,0.00010955,53.2166,174.6157,86.2929,273.8189,0,U,52472,999,22047,3.893426e-06,-2.26e-06,0.0,Active Satellites
STARLINK-3879,2022-049Y,2026-05-03T03:53:32.680320,15.08835957,0.00012818,53.2164,174.5814,87.4725,272.6414,0,U,52473,999,22047,-8.293853e-06,-4.2e-06,0.0,Active Satellites
STARLINK-3882,2022-049AA,2026-05-02T20:17:51.210240,15.08849298,8.608e-05,53.216,176.227,53.3983,306.7088,0,U,52475,999,22042,4.8628617e-05,4.86e-06,0.0,Active Satellites
STARLINK-3835,2022-049AB,2026-05-03T06:14:03.944832,15.08842071,0.00013153,53.2167,164.3863,91.4251,268.6892,0,U,52476,999,22186,-1.6812364e-05,-5.55e-06,0.0,Active Satellites
STARLINK-3860,2022-049AC,2026-05-03T02:40:40.569024,15.08827771,8.888e-05,53.2168,164.811,97.8934,262.2159,0,U,52477,999,22184,5.8851403e-05,6.49e-06,0.0,Active Satellites
STARLINK-3825,2022-049AD,2026-05-03T06:43:06.975840,15.08841878,0.00011787,53.2166,174.0523,85.7542,274.3584,0,U,52478,999,22173,4.2591444e-05,3.9e-06,0.0,Active Satellites
STARLINK-3878,2022-049AE,2026-05-03T02:19:29.662176,15.08833948,0.00012746,53.2163,164.8786,87.6283,272.4855,0,U,52479,999,22184,2.2865617e-05,7.6e-07,0.0,Active Satellites
STARLINK-3839,2022-049AF,2026-05-03T06:37:49.006560,15.08841052,0.00011744,53.2158,174.0693,86.725,273.3877,0,U,52480,999,22049,-1.776958e-06,-3.16e-06,0.0,Active Satellites
