JILIN-1 GAOFEN 3D31     
1 52448U 22048F   26123.27336498  .00113638  00000+0  91798-3 0  9993
2 52448  97.5649 234.5277 0002934 215.7042 144.4024 15.70490977222514
STARLINK-3870           
1 52451U 22049A   26123.33334491  .01210632  00000+0  34885-2 0  9992
2 52451  53.2098 170.5481 0001677  76.0914  38.2050 15.90146450  5839
STARLINK-3909           
1 52452U 22049B   26123.17228488  .00000285  00000+0  35970-4 0  9991
2 52452  53.2161 184.4091 0000778  68.6628 291.4447 15.08840814220333
STARLINK-3872           
1 52453U 22049C   26122.88897516  .00018594  00000+0  11853-2 0  9997
2 52453  53.2164 185.8120 0002771  39.0225 321.0967 15.08776663220297
STARLINK-3888           
1 52454U 22049D   26123.15758654  .00000936  00000+0  76891-4 0  9994
2 52454  53.2172 184.6059 0001255  84.9638 275.1497 15.08839151220332
STARLINK-3890           
1 52455U 22049E   26122.88622766 -.00000292  00000+0 -23602-6 0  9999
2 52455  53.2182 185.8257 0001171  85.7872 274.3254 15.08834856220297
STARLINK-3896           
1 52456U 22049F   26123.14750311  .00000232  00000+0  32652-4 0  9993
2 52456  53.2183 184.6522 0001485  96.8144 263.3017 15.08838052220336
STARLINK-3899           
1 52457U 22049G   26122.87790583  .00000042  00000+0  20754-4 0  9997
2 52457  53.2166 185.8497 0001300  87.2968 272.8173 15.08838174220294
STARLINK-3898           
1 52458U 22049H   26122.87518611 -.00000636  00000+0 -21881-4 0  9991
2 52458  53.2175 185.8725 0001206 105.7618 254.3507 15.08831930220291
STARLINK-3856           
1 52459U 22049J   26122.86042543 -.00000079  00000+0  13145-4 0  9991
2 52459  53.2166 175.9408 0001281  87.2865 272.8274 15.08837830220427
STARLINK-3900           
1 52461U 22049L   26123.25510273  .00000026  00000+0  19710-4 0  9993
2 52461  53.2168 164.1666 0001105  92.8208 267.2911 15.08838969220628
STARLINK-3903           
1 52462U 22049M   26122.85402678 -.00000191  00000+0  60917-5 0  9998
2 52462  53.2162 175.9776 0001285  86.1600 273.9539 15.08835820220427
STARLINK-3885           
1 52463U 22049N   26123.25142202  .00000194  00000+0  30276-4 0  9994
2 52463  53.2167 164.1850 0001239  85.7857 274.3277 15.08841146220628
STARLINK-3904           
1 52464U 22049P   26122.39307006  .00001612  00000+0  11934-3 0  9999
2 52464  53.2172 178.0391 0001239  78.5447 281.5685 15.08832375220351
STARLINK-3863           
1 52465U 22049Q   26123.11526252 -.00000244  00000+0  27277-5 0  9997
2 52465  53.2159 164.7934 0001246  87.6076 272.5058 15.08842277220603
STARLINK-3873           
1 52467U 22049S   26123.11434478  .00000615  00000+0  56705-4 0  9995
2 52467  53.2169 174.7979 0000425  97.3748 262.7293 15.08828851220466
STARLINK-3864           
1 52468U 22049T   26123.16588469  .00001695  00000+0  12460-3 0  9999
2 52468  53.2163 174.5660 0001199  85.8363 274.2767 15.08826135220478
STARLINK-3828           
1 52469U 22049U   26123.10698824 -.00000196  00000+0  57396-5 0  9996
2 52469  53.2163 174.8382 0001168  82.6449 277.4676 15.08834561220464
STARLINK-3859           
1 52470U 22049V   26123.15850344 -.00000208  00000+0  50487-5 0  9998
2 52470  53.2169 174.5995 0001224  89.5480 270.5653 15.08837032220479
STARLINK-3862           
1 52471U 22049W   26123.17050416  .00000004  00000+0  18349-4 0  9996
2 52471  53.2164 174.5549 0001218  86.4236 273.6896 15.08835263220475
STARLINK-3881           
1 52472U 22049X   26123.15482250 -.00000226  00000+0  38934-5 0  9990
2 52472  53.2166 174.6157 0001095  86.2929 273.8189 15.08839073220474
STARLINK-3879           
1 52473U 22049Y   26123.16218380 -.00000420  00000+0 -82939-5 0  9994
2 52473  53.2164 174.5814 0001281  87.4725 272.6414 15.08835957220471
STARLINK-3882           
1 52475U 22049AA  26122.84573160  .00000486  00000+0  48629-4 0  9997
2 52475  53.2160 176.2270 0000860  53.3983 306.7088 15.08849298220428
STARLINK-3835           
1 52476U 22049AB  26123.25976788 -.00000555  00000+0 -16812-4 0  9995
2 52476  53.2167 164.3863 0001315  91.4251 268.6892 15.08842071221869
STARLINK-3860           
1 52477U 22049AC  26123.11158066  .00000649  00000+0  58851-4 0  9993
2 52477  53.2168 164.8110 0000888  97.8934 262.2159 15.08827771221847
STARLINK-3825           
1 52478U 22049AD  26123.27994185  .00000390  00000+0  42591-4 0  9998
2 52478  53.2166 174.0523 0001178  85.7542 274.3584 15.08841878221739
STARLINK-3878           
1 52479U 22049AE  26123.09687109  .00000076  00000+0  22866-4 0  9998
2 52479  53.2163 164.8786 0001274  87.6283 272.4855 15.08833948221846
STARLINK-3839           
1 52480U 22049AF  26123.27626165 -.00000316  00000+0 -17770-5 0  9993
2 52480  53.2158 174.0693 0001174  86.7250 273.3877 15.08841052220494
